KUIPER-00071            
1 64818U 25151C   25205.91668981  .00043870  00000+0  12559-2 0  9998
2 64818  51.8779 245.9076 0005633 169.9142 156.1512 15.35492063  1301
KUIPER-00072            
1 64819U 25151D   25206.50001157  .00050785  00000+0  14678-2 0  9998
2 64819  51.8770 243.1128 0004985 181.9952 120.4832 15.35130145  1403
KUIPER-00073            
1 64820U 25151E   25206.16668981  .00015826  00000+0  46429-3 0  9993
2 64820  51.8782 244.7182 0005756 177.9815  83.7613 15.35318592  2532
KUIPER-00074            
1 64821U 25151F   25206.16668981  .00014827  00000+0  43530-3 0  9994
2 64821  51.8770 244.7082 0005666 177.8266  85.6157 15.35351630  1351
KUIPER-00075            
1 64822U 25151G   25206.50001157  .00050581  00000+0  14508-2 0  9998
2 64822  51.8783 243.1030 0005160 170.2705 140.1448 15.35370296  1401
KUIPER-00076            
1 64823U 25151H   25206.50001157  .00050066  00000+0  14445-2 0  9997
2 64823  51.8770 243.1082 0005177 178.5653 126.1867 15.35189940  1409
KUIPER-00077            
1 64824U 25151J   25206.16668981  .00014832  00000+0  43957-3 0  9996
2 64824  51.8783 244.7310 0005840 185.5355  69.7681 15.35052699  1359
KUIPER-00078            
1 64825U 25151K   25206.50001157  .00050899  00000+0  14734-2 0  9994
2 64825  51.8776 243.1216 0005733 188.2564 111.2489 15.35076247  1403
